0 COSMOS 839 DEB
1 10442U 76067T   13281.05213090  .00000100  00000-0  78087-3 0  9491
2 10442 066.0076 091.4968 0650836 141.2705 312.2967 12.16625791655638
0 COSMOS 839 DEB
1 10442U 76067T   13283.50579699 -.00000186  00000-0 -70412-3 0  9505
2 10442 066.0079 086.9326 0650719 140.2790 258.9971 12.16628607655934
0 COSMOS 839 DEB
1 10442U 76067T   13285.73915354 -.00000331  00000-0 -14559-2 0  9516
2 10442 066.0082 082.7783 0650606 139.3805 320.7902 12.16629067656204
0 COSMOS 839 DEB
1 10442U 76067T   13287.79643847 -.00000237  00000-0 -96633-3 0  9529
2 10442 066.0088 078.9518 0650484 138.5569 331.4207 12.16627353656455
0 COSMOS 839 DEB
1 10442U 76067T   13290.01232854  .00000013  00000-0  32951-3 0  9534
2 10442 066.0095 074.8305 0650329 137.6667 316.7171 12.16624719656728
0 COSMOS 839 DEB
1 10442U 76067T   13292.47245522  .00000184  00000-0  12210-2 0  9547
2 10442 066.0102 070.2557 0650225 136.6804 291.7120 12.16623611657023
0 COSMOS 839 DEB
1 10442U 76067T   13294.52901887  .00000139  00000-0  98440-3 0  9559
2 10442 066.0104 066.4311 0650156 135.8498 299.1527 12.16625047657278
